{
  "type": "FeatureCollection",
  "features": [
    {
      "type": "Feature",
      "properties": {
        "norad_id": 31150,
        "name": "FENGYUN 1C DEB",
        "group": "fengyun-1c-debris",
        "lat": 81.1082732607741,
        "lon": -92.43794667662172,
        "alt_km": 832.338149707396,
        "timestamp": "2025-12-27T15:27:11.471317+00:00",
        "meta_object_name": "FENGYUN 1C DEB",
        "meta_object_id": "1999-025BHC",
        "meta_epoch": "2025-12-27T06:35:15.529920",
        "meta_mean_motion": 14.1274189,
        "meta_eccentricity": 0.0015838,
        "meta_inclination": 98.6858,
        "meta_ra_of_asc_node": 9.4904,
        "meta_arg_of_pericenter": 119.8884,
        "meta_mean_anomaly": 254.4194,
        "meta_ephemeris_type": 0,
        "meta_classification_type": "U",
        "meta_norad_cat_id": 31150,
        "meta_element_set_no": 999,
        "meta_rev_at_epoch": 96502,
        "meta_bstar": 0.0001626343,
        "meta_mean_motion_dot": 2.6e-06,
        "meta_mean_motion_ddot": 0,
        "tle_line1": "1 31150U 99025BHC 25361.27448530  .00000260  00000+0  16263-3 0  9993",
        "tle_line2": "2 31150  98.6858   9.4904 0015838 119.8884 254.4194 14.12741890965024"
      },
      "geometry": {
        "type": "Point",
        "coordinates": [
          -92.43794667662172,
          81.1082732607741
        ]
      }
    },
    {
      "type": "Feature",
      "properties": {
        "norad_id": 31151,
        "name": "FENGYUN 1C DEB",
        "group": "fengyun-1c-debris",
        "lat": -56.32059270280324,
        "lon": 173.7284984424666,
        "alt_km": 822.3659926660011,
        "timestamp": "2025-12-27T15:27:11.471327+00:00",
        "meta_object_name": "FENGYUN 1C DEB",
        "meta_object_id": "1999-025BHD",
        "meta_epoch": "2025-12-26T23:11:00.707424",
        "meta_mean_motion": 14.25963985,
        "meta_eccentricity": 0.0056232,
        "meta_inclination": 99.1356,
        "meta_ra_of_asc_node": 6.9954,
        "meta_arg_of_pericenter": 344.1499,
        "meta_mean_anomaly": 15.7917,
        "meta_ephemeris_type": 0,
        "meta_classification_type": "U",
        "meta_norad_cat_id": 31151,
        "meta_element_set_no": 999,
        "meta_rev_at_epoch": 96177,
        "meta_bstar": 0.0028402,
        "meta_mean_motion_dot": 6.844e-05,
        "meta_mean_motion_ddot": 0,
        "tle_line1": "1 31151U 99025BHD 25360.96598041  .00006844  00000+0  28402-2 0  9993",
        "tle_line2": "2 31151  99.1356   6.9954 0056232 344.1499  15.7917 14.25963985961773"
      },
      "geometry": {
        "type": "Point",
        "coordinates": [
          173.7284984424666,
          -56.32059270280324
        ]
      }
    },
    {
      "type": "Feature",
      "properties": {
        "norad_id": 31152,
        "name": "FENGYUN 1C DEB",
        "group": "fengyun-1c-debris",
        "lat": 43.800798273156325,
        "lon": 176.0503682663509,
        "alt_km": 845.3520093904626,
        "timestamp": "2025-12-27T15:27:11.471337+00:00",
        "meta_object_name": "FENGYUN 1C DEB",
        "meta_object_id": "1999-025BHE",
        "meta_epoch": "2025-12-24T10:36:14.536224",
        "meta_mean_motion": 14.35857873,
        "meta_eccentricity": 0.01294685,
        "meta_inclination": 98.4153,
        "meta_ra_of_asc_node": 344.7627,
        "meta_arg_of_pericenter": 358.5548,
        "meta_mean_anomaly": 154.0061,
        "meta_ephemeris_type": 0,
        "meta_classification_type": "U",
        "meta_norad_cat_id": 31152,
        "meta_element_set_no": 999,
        "meta_rev_at_epoch": 98216,
        "meta_bstar": 0.00011929315,
        "meta_mean_motion_dot": 3.34e-06,
        "meta_mean_motion_ddot": 0,
        "tle_line1": "1 31152U 99025BHE 25358.44183491  .00000334  00000+0  11929-3 0  9998",
        "tle_line2": "2 31152  98.4153 344.7627 0129468 358.5548 154.0061 14.35857873982169"
      },
      "geometry": {
        "type": "Point",
        "coordinates": [
          176.0503682663509,
          43.800798273156325
        ]
      }
    },
    {
      "type": "Feature",
      "properties": {
        "norad_id": 31155,
        "name": "FENGYUN 1C DEB",
        "group": "fengyun-1c-debris",
        "lat": 11.39083808004213,
        "lon": 68.76540188567927,
        "alt_km": 825.5068686535069,
        "timestamp": "2025-12-27T15:27:11.471347+00:00",
        "meta_object_name": "FENGYUN 1C DEB",
        "meta_object_id": "1999-025BHH",
        "meta_epoch": "2025-12-27T03:27:51.110784",
        "meta_mean_motion": 14.08383591,
        "meta_eccentricity": 0.00888168,
        "meta_inclination": 99.0403,
        "meta_ra_of_asc_node": 70.103,
        "meta_arg_of_pericenter": 321.8738,
        "meta_mean_anomaly": 37.6169,
        "meta_ephemeris_type": 0,
        "meta_classification_type": "U",
        "meta_norad_cat_id": 31155,
        "meta_element_set_no": 999,
        "meta_rev_at_epoch": 95790,
        "meta_bstar": 0.0013416902,
        "meta_mean_motion_dot": 2.337e-05,
        "meta_mean_motion_ddot": 0,
        "tle_line1": "1 31155U 99025BHH 25361.14434156  .00002337  00000+0  13417-2 0  9997",
        "tle_line2": "2 31155  99.0403  70.1030 0088816 321.8738  37.6169 14.08383591957900"
      },
      "geometry": {
        "type": "Point",
        "coordinates": [
          68.76540188567927,
          11.39083808004213
        ]
      }
    },
    {
      "type": "Feature",
      "properties": {
        "norad_id": 31157,
        "name": "FENGYUN 1C DEB",
        "group": "fengyun-1c-debris",
        "lat": -6.594835679647217,
        "lon": -14.412266080679146,
        "alt_km": 795.8190746022547,
        "timestamp": "2025-12-27T15:27:11.471358+00:00",
        "meta_object_name": "FENGYUN 1C DEB",
        "meta_object_id": "1999-025BHK",
        "meta_epoch": "2025-12-25T04:24:12.072384",
        "meta_mean_motion": 14.22581375,
        "meta_eccentricity": 0.0099325,
        "meta_inclination": 98.4826,
        "meta_ra_of_asc_node": 342.2302,
        "meta_arg_of_pericenter": 290.1653,
        "meta_mean_anomaly": 68.8863,
        "meta_ephemeris_type": 0,
        "meta_classification_type": "U",
        "meta_norad_cat_id": 31157,
        "meta_element_set_no": 999,
        "meta_rev_at_epoch": 97160,
        "meta_bstar": 0.00030637,
        "meta_mean_motion_dot": 6.77e-06,
        "meta_mean_motion_ddot": 0,
        "tle_line1": "1 31157U 99025BHK 25359.18347306  .00000677  00000+0  30637-3 0  9999",
        "tle_line2": "2 31157  98.4826 342.2302 0099325 290.1653  68.8863 14.22581375971606"
      },
      "geometry": {
        "type": "Point",
        "coordinates": [
          -14.412266080679146,
          -6.594835679647217
        ]
      }
    },
    {
      "type": "Feature",
      "properties": {
        "norad_id": 31158,
        "name": "FENGYUN 1C DEB",
        "group": "fengyun-1c-debris",
        "lat": 17.278489324715125,
        "lon": 77.74908043404098,
        "alt_km": 751.2455106844891,
        "timestamp": "2025-12-27T15:27:11.471368+00:00",
        "meta_object_name": "FENGYUN 1C DEB",
        "meta_object_id": "1999-025BHL",
        "meta_epoch": "2025-12-21T11:56:21.493536",
        "meta_mean_motion": 14.33299733,
        "meta_eccentricity": 0.00468097,
        "meta_inclination": 98.7797,
        "meta_ra_of_asc_node": 74.2735,
        "meta_arg_of_pericenter": 8.2217,
        "meta_mean_anomaly": 351.9724,
        "meta_ephemeris_type": 0,
        "meta_classification_type": "U",
        "meta_norad_cat_id": 31158,
        "meta_element_set_no": 999,
        "meta_rev_at_epoch": 64605,
        "meta_bstar": 0.0012542591,
        "meta_mean_motion_dot": 3.451e-05,
        "meta_mean_motion_ddot": 0,
        "tle_line1": "1 31158U 99025BHL 25355.49747099  .00003451  00000+0  12543-2 0  9991",
        "tle_line2": "2 31158  98.7797  74.2735 0046809   8.2217 351.9724 14.33299733646058"
      },
      "geometry": {
        "type": "Point",
        "coordinates": [
          77.74908043404098,
          17.278489324715125
        ]
      }
    },
    {
      "type": "Feature",
      "properties": {
        "norad_id": 31159,
        "name": "FENGYUN 1C DEB",
        "group": "fengyun-1c-debris",
        "lat": 78.88580025058349,
        "lon": -82.03654910028582,
        "alt_km": 474.16543942740554,
        "timestamp": "2025-12-27T15:27:11.471378+00:00",
        "meta_object_name": "FENGYUN 1C DEB",
        "meta_object_id": "1999-025BHM",
        "meta_epoch": "2025-12-25T03:51:07.680384",
        "meta_mean_motion": 15.40087027,
        "meta_eccentricity": 0.0105705,
        "meta_inclination": 97.8001,
        "meta_ra_of_asc_node": 319.5662,
        "meta_arg_of_pericenter": 329.563,
        "meta_mean_anomaly": 29.9504,
        "meta_ephemeris_type": 0,
        "meta_classification_type": "U",
        "meta_norad_cat_id": 31159,
        "meta_element_set_no": 999,
        "meta_rev_at_epoch": 99744,
        "meta_bstar": 0.0016351,
        "meta_mean_motion_dot": 0.00080319,
        "meta_mean_motion_ddot": 0,
        "tle_line1": "1 31159U 99025BHM 25359.16050556  .00080319  00000+0  16351-2 0  9994",
        "tle_line2": "2 31159  97.8001 319.5662 0105705 329.5630  29.9504 15.40087027997440"
      },
      "geometry": {
        "type": "Point",
        "coordinates": [
          -82.03654910028582,
          78.88580025058349
        ]
      }
    }
  ]
}